NORAD_CAT_ID,OBJECT_NAME,OBJECT_TYPE,EPOCH,MEAN_MOTION,ECCENTRICITY,INCLINATION,RA_OF_ASC_NODE,ARG_OF_PERICENTER,MEAN_ANOMALY,BSTAR,MEAN_MOTION_DOT,MEAN_MOTION_DDOT,TLE_LINE0,TLE_LINE1,TLE_LINE2,SEMIMAJOR_AXIS,PERIOD,APOGEE,PERIGEE,DECAYED
51991.0,STARLINK-3652,PAYLOAD,2023-11-06 04:57:39,15.08908602,0.0001802,53.2172,275.0484,105.0377,255.0814,0.0024221,0.00038544,0.0,0 STARLINK-3652,1 51991U 22025AM  23310.20670430  .00038544  00000-0  24221-2 0  9994,2 51991  53.2172 275.0484 0001802 105.0377 255.0814 15.08908602 93153,6917.671,95.433,540.782,538.289,0.0
51991.0,STARLINK-3652,PAYLOAD,2023-11-07 04:48:26,15.08815821,0.0001265,53.2153,270.5812,58.6593,301.4523,-0.0010496,-0.00016942,0.0,0 STARLINK-3652,1 51991U 22025AM  23311.20030637 -.00016942  00000-0 -10496-2 0  9993,2 51991  53.2153 270.5812 0001265  58.6593 301.4523 15.08815821 93303,6917.954,95.439,540.694,538.944,0.0
51991.0,STARLINK-3652,PAYLOAD,2023-11-07 14:20:46,15.08802566,0.0001324,53.2159,268.8004,93.2742,266.8401,0.00010436,1.372e-05,0.0,0 STARLINK-3652,1 51991U 22025AM  23311.59775905  .00001372  00000-0  10436-3 0  9993,2 51991  53.2159 268.8004 0001324  93.2742 266.8401 15.08802566 92275,6917.995,95.44,540.776,538.944,0.0
51991.0,STARLINK-3652,PAYLOAD,2023-11-08 03:03:52,15.08825755,0.0001357,53.2159,266.4223,94.1437,265.971,0.0012348,0.00019411,0.0,0 STARLINK-3652,1 51991U 22025AM  23312.12768879  .00019411  00000-0  12348-2 0  9991,2 51991  53.2159 266.4223 0001357  94.1437 265.9710 15.08825755 93447,6917.924,95.438,540.728,538.85,0.0
51991.0,STARLINK-3652,PAYLOAD,2023-11-08 06:14:38,15.08842204,0.0001454,53.2156,265.8287,94.8163,265.2995,0.0016812,0.00026571,0.0,0 STARLINK-3652,1 51991U 22025AM  23312.26016807  .00026571  00000-0  16812-2 0  9998,2 51991  53.2156 265.8287 0001454  94.8163 265.2995 15.08842204 93466,6917.874,95.437,540.745,538.733,0.0
51991.0,STARLINK-3652,PAYLOAD,2023-11-09 02:54:39,15.08858157,0.0001426,53.215,261.9616,89.582,270.5336,0.0012519,0.00019702,0.0,0 STARLINK-3652,1 51991U 22025AM  23313.12128951  .00019702  00000-0  12519-2 0  9996,2 51991  53.2150 261.9616 0001426  89.5820 270.5336 15.08858157 93599,6917.825,95.436,540.676,538.703,0.0
51991.0,STARLINK-3652,PAYLOAD,2023-11-09 06:05:25,15.08866178,0.0001443,53.2151,261.3676,84.2382,275.8774,0.0018012,0.00028515,0.0,0 STARLINK-3652,1 51991U 22025AM  23313.25376800  .00028515  00000-0  18012-2 0  9994,2 51991  53.2151 261.3676 0001443  84.2382 275.8774 15.08866178 92522,6917.8,95.436,540.664,538.667,0.0
51991.0,STARLINK-3652,PAYLOAD,2023-11-10 02:45:26,15.08858799,0.0001671,53.2164,257.4998,105.814,254.3037,0.001679,0.00026548,0.0,0 STARLINK-3652,1 51991U 22025AM  23314.11488901  .00026548  00000-0  16790-2 0  9991,2 51991  53.2164 257.4998 0001671 105.8140 254.3037 15.08858799 93743,6917.823,95.436,540.844,538.532,0.0
51991.0,STARLINK-3652,PAYLOAD,2023-11-10 13:53:08,15.08838468,0.0001881,53.2171,255.4175,95.7528,264.3679,0.0010372,0.00016257,0.0,0 STARLINK-3652,1 51991U 22025AM  23314.57857298  .00016257  00000-0  10372-2 0  9996,2 51991  53.2171 255.4175 0001881  95.7528 264.3679 15.08838468 92727,6917.885,95.438,541.051,538.449,0.0
51991.0,STARLINK-3652,PAYLOAD,2023-11-11 02:36:13,15.08841995,0.0001517,53.2162,253.0378,104.1957,255.9204,0.00096363,0.00015082,0.0,0 STARLINK-3652,1 51991U 22025AM  23315.10849165  .00015082  00000-0  96363-3 0  9990,2 51991  53.2162 253.0378 0001517 104.1957 255.9204 15.08841995 93891,6917.874,95.437,540.789,538.69,0.0
51991.0,STARLINK-3652,PAYLOAD,2023-11-11 05:46:59,15.08841917,0.000157,53.2163,252.4415,108.0411,252.0752,0.00063442,9.824e-05,0.0,0 STARLINK-3652,1 51991U 22025AM  23315.24097107  .00009824  00000-0  63442-3 0  9995,2 51991  53.2163 252.4415 0001570 108.0411 252.0752 15.08841917 92826,6917.875,95.437,540.826,538.653,0.0
51991.0,STARLINK-3652,PAYLOAD,2023-11-12 02:27:00,15.08841376,0.0001423,53.2171,248.5787,89.0924,271.0231,0.00020596,2.992e-05,0.0,0 STARLINK-3652,1 51991U 22025AM  23316.10209435  .00002992  00000-0  20596-3 0  9992,2 51991  53.2171 248.5787 0001423  89.0924 271.0231 15.08841376 94045,6917.876,95.437,540.726,538.757,0.0
51991.0,STARLINK-3652,PAYLOAD,2023-11-12 05:37:47,15.0884322,0.0001422,53.217,247.9832,88.3071,271.8084,0.00028057,4.181e-05,0.0,0 STARLINK-3652,1 51991U 22025AM  23316.23457437  .00004181  00000-0  28057-3 0  9995,2 51991  53.2170 247.9832 0001422  88.3071 271.8084 15.08843220 92976,6917.871,95.437,540.719,538.752,0.0
51991.0,STARLINK-3652,PAYLOAD,2023-11-13 02:17:47,15.08851881,0.0001476,53.2169,244.117,83.8818,276.2342,0.00039641,6.029e-05,0.0,0 STARLINK-3652,1 51991U 22025AM  23317.09569173  .00006029  00000-0  39641-3 0  9995,2 51991  53.2169 244.1170 0001476  83.8818 276.2342 15.08851881 93100,6917.844,95.437,540.73,538.688,0.0
51991.0,STARLINK-3652,PAYLOAD,2023-11-13 19:47:02,15.08845086,0.0001743,53.2167,240.8462,67.5335,292.5841,0.00016999,2.419e-05,0.0,0 STARLINK-3652,1 51991U 22025AM  23317.82433387  .00002419  00000-0  16999-3 0  9993,2 51991  53.2167 240.8462 0001743  67.5335 292.5841 15.08845086 93212,6917.865,95.437,540.936,538.524,0.0
51991.0,STARLINK-3652,PAYLOAD,2023-11-14 03:43:58,15.08841851,0.0001388,53.2157,239.3605,77.0234,283.0913,6.8558e-05,8.03e-06,0.0,0 STARLINK-3652,1 51991U 22025AM  23318.15553370  .00000803  00000-0  68558-4 0  9999,2 51991  53.2157 239.3605 0001388  77.0234 283.0913 15.08841851 94359,6917.875,95.437,540.7,538.78,0.0
51991.0,STARLINK-3652,PAYLOAD,2023-11-14 11:40:53,15.08837545,0.0001416,53.2153,237.8741,79.7899,280.3253,-1.548e-05,-5.34e-06,0.0,0 STARLINK-3652,1 51991U 22025AM  23318.48673513 -.00000534  00000-0 -15480-4 0  9996,2 51991  53.2153 237.8741 0001416  79.7899 280.3253 15.08837545 93314,6917.888,95.438,540.732,538.773,0.0
51991.0,STARLINK-3652,PAYLOAD,2023-11-15 05:10:07,15.08849736,0.0001482,53.2157,234.603,87.0034,273.1128,9.223e-05,1.181e-05,0.0,0 STARLINK-3652,1 51991U 22025AM  23319.21536884  .00001181  00000-0  92230-4 0  9992,2 51991  53.2157 234.6030 0001482  87.0034 273.1128 15.08849736 94519,6917.851,95.437,540.741,538.69,0.0
51991.0,STARLINK-3652,PAYLOAD,2023-11-16 03:25:32,15.088397,0.0001842,53.2182,230.4371,74.3993,285.7202,0.00013414,1.847e-05,0.0,0 STARLINK-3652,1 51991U 22025AM  23320.14273820  .00001847  00000-0  13414-3 0  9999,2 51991  53.2182 230.4371 0001842  74.3993 285.7202 15.08839700 94659,6917.881,95.438,541.021,538.472,0.0
51991.0,STARLINK-3652,PAYLOAD,2023-11-17 11:13:15,15.08831969,0.0001708,53.2173,224.4892,91.3542,268.7646,0.00017243,2.457e-05,0.0,0 STARLINK-3652,1 51991U 22025AM  23321.46754196  .00002457  00000-0  17243-3 0  9997,2 51991  53.2173 224.4892 0001708  91.3542 268.7646 15.08831969 94854,6917.905,95.438,540.952,538.588,0.0
51991.0,STARLINK-3652,PAYLOAD,2023-11-18 11:04:02,15.08838653,0.0001862,53.2181,220.0299,94.6001,265.5204,8.8423e-05,1.119e-05,0.0,0 STARLINK-3652,1 51991U 22025AM  23322.46114215  .00001119  00000-0  88423-4 0  9993,2 51991  53.2181 220.0299 0001862  94.6001 265.5204 15.08838653 93911,6917.885,95.438,541.038,538.461,0.0
51991.0,STARLINK-3652,PAYLOAD,2023-11-19 02:57:53,15.08839121,0.0001797,53.2167,217.0582,92.4091,267.7107,0.00055388,8.538e-05,0.0,0 STARLINK-3652,1 51991U 22025AM  23323.12354044  .00008538  00000-0  55388-3 0  9998,2 51991  53.2167 217.0582 0001797  92.4091 267.7107 15.08839121 95108,6917.883,95.438,540.991,538.505,0.0
51991.0,STARLINK-3652,PAYLOAD,2023-11-19 22:02:31,15.08838697,0.0001689,53.2167,213.4889,88.3825,271.7361,0.00014439,2.011e-05,0.0,0 STARLINK-3652,1 51991U 22025AM  23323.91841917  .00002011  00000-0  14439-3 0  9997,2 51991  53.2167 213.4889 0001689  88.3825 271.7361 15.08838697 94133,6917.884,95.438,540.918,538.581,0.0
51991.0,STARLINK-3652,PAYLOAD,2023-11-20 09:10:14,15.08823449,0.0001793,53.2168,211.4074,85.6187,274.501,0.00036558,5.532e-05,0.0,0 STARLINK-3652,1 51991U 22025AM  23324.38210702  .00005532  00000-0  36558-3 0  9998,2 51991  53.2168 211.4074 0001793  85.6187 274.5010 15.08823449 95294,6917.931,95.439,541.036,538.556,0.0
51991.0,STARLINK-3652,PAYLOAD,2023-11-20 20:17:55,15.08842005,0.0001725,53.2169,209.326,88.0131,272.1059,4.6647e-06,-2.14e-06,0.0,0 STARLINK-3652,1 51991U 22025AM  23324.84577918 -.00000214  00000-0  46647-5 0  9999,2 51991  53.2169 209.3260 0001725  88.0131 272.1059 15.08842005 95363,6917.874,95.437,540.933,538.546,0.0
51991.0,STARLINK-3652,PAYLOAD,2023-11-20 21:53:18,15.08841619,0.000173,53.2169,209.0287,87.8762,272.2428,-5.5359e-06,-3.76e-06,0.0,0 STARLINK-3652,1 51991U 22025AM  23324.91201885 -.00000376  00000-0 -55359-5 0  9994,2 51991  53.2169 209.0287 0001730  87.8762 272.2428 15.08841619 94283,6917.875,95.437,540.937,538.544,0.0
51991.0,STARLINK-3652,PAYLOAD,2023-11-21 09:01:00,15.08841787,0.0001741,53.2168,206.9467,87.0484,273.0707,2.9552e-05,1.82e-06,0.0,0 STARLINK-3652,1 51991U 22025AM  23325.37569776  .00000182  00000-0  29552-4 0  9999,2 51991  53.2168 206.9467 0001741  87.0484 273.0707 15.08841787 94356,6917.875,95.437,540.944,538.536,0.0
51991.0,STARLINK-3652,PAYLOAD,2023-11-21 20:08:42,15.0883326,0.000172,53.2165,204.8686,92.9889,267.13,7.3715e-06,-1.71e-06,0.0,0 STARLINK-3652,1 51991U 22025AM  23325.83938559 -.00000171  00000-0  73715-5 0  9999,2 51991  53.2165 204.8686 0001720  92.9889 267.1300 15.08833260 94422,6917.901,95.438,540.956,538.576,0.0
51991.0,STARLINK-3652,PAYLOAD,2023-11-22 00:54:52,15.08837454,0.0001726,53.2169,203.977,94.2303,265.8886,3.9262e-05,3.37e-06,0.0,0 STARLINK-3652,1 51991U 22025AM  23326.03810277  .00000337  00000-0  39262-4 0  9999,2 51991  53.2169 203.9770 0001726  94.2303 265.8886 15.08837454 95549,6917.888,95.438,540.947,538.559,0.0
51991.0,STARLINK-3652,PAYLOAD,2023-11-22 21:34:52,15.08844965,0.00017,53.2168,200.1109,97.3114,262.8071,0.00015379,2.161e-05,0.0,0 STARLINK-3652,1 51991U 22025AM  23326.89921734  .00002161  00000-0  15379-3 0  9993,2 51991  53.2168 200.1109 0001700  97.3114 262.8071 15.08844965 94580,6917.865,95.437,540.906,538.554,0.0
